BEIDOU-2 IGSO-1 (C06)   
1 36828U 10036A   23271.72066566 -.00000136  00000+0  00000+0 0  9999
2 36828  54.2343 171.9521 0036766 187.5742  12.1448  1.00246056 48251
BEIDOU-2 G4 (C04)       
1 37210U 10057A   23272.09734076 -.00000125  00000+0  00000+0 0  9995
2 37210   1.2308  61.9540 0006855 158.1794 342.4904  1.00272243 47337
BEIDOU-2 IGSO-2 (C07)   
1 37256U 10068A   23272.30033824 -.00000192  00000+0  00000+0 0  9998
2 37256  49.3646 284.0016 0032332 213.5224  86.8536  1.00275487 46842
BEIDOU-2 IGSO-3 (C08)   
1 37384U 11013A   23272.29646556 -.00000183  00000+0  00000+0 0  9991
2 37384  60.9770  49.6532 0028351 175.6782 357.4330  1.00274915 45722
BEIDOU-2 IGSO-4 (C09)   
1 37763U 11038A   23272.22145984 -.00000091  00000+0  00000+0 0  9999
2 37763  54.5079 174.4923 0112041 227.7510 140.5719  1.00268586 44697
BEIDOU-2 IGSO-5 (C10)   
1 37948U 11073A   23271.73071243 -.00000138  00000+0  00000+0 0  9996
2 37948  49.4914 283.6778 0095155 220.8357 221.3692  1.00266611 43181
BEIDOU-2 G5 (C05)       
1 38091U 12008A   23272.07529687  .00000045  00000+0  00000+0 0  9999
2 38091   1.7677  68.8026 0004992 175.6255 208.9925  1.00268306 42531
BEIDOU-2 M3 (C11)       
1 38250U 12018A   23272.43534693 -.00000084  00000+0  00000+0 0  9994
2 38250  56.4972 338.0425 0024404 256.7004 103.0921  1.86231019 77816
BEIDOU-2 M4 (C12)       
1 38251U 12018B   23272.36668082 -.00000083  00000+0  00000+0 0  9996
2 38251  56.4076 337.3361 0015282 256.9080 102.9865  1.86231727 77825
BEIDOU-2 M6 (C14)       
1 38775U 12050B   23271.53955868  .00000042  00000+0  00000+0 0  9996
2 38775  55.7098  95.9556 0010991 340.2244  19.7965  1.86231134 75170
BEIDOU-2 G6 (C02)       
1 38953U 12059A   23272.51023587 -.00000188  00000+0  00000+0 0  9998
2 38953   1.8889  81.8338 0006915 307.0787 246.8559  1.00271983 40103
BEIDOU-3S IGSO-1S (C31) 
1 40549U 15019A   23271.68323869 -.00000136  00000+0  00000+0 0  9997
2 40549  51.0559 307.2848 0040991 197.2370 200.5013  1.00250913 31122
BEIDOU-3S M2S (C57)     
1 40748U 15037A   23271.49528932 -.00000077  00000+0  00000+0 0  9999
2 40748  55.6478 335.9495 0012144 244.3468 115.5930  1.86233001 55638
BEIDOU-3S M1S (C58)     
1 40749U 15037B   23272.30237449 -.00000082  00000+0  00000+0 0  9997
2 40749  55.6504 335.9083 0004194 295.6157  64.4062  1.86232757 55648
BEIDOU-3S IGSO-2S (C56) 
1 40938U 15053A   23272.35465997 -.00000135  00000+0  00000+0 0  9990
2 40938  50.7720 270.4527 0047798 194.7337 126.9003  1.00277166 29409
BEIDOU-2 IGSO-6 (C13)   
1 41434U 16021A   23271.72270501 -.00000160  00000+0  00000+0 0  9991
2 41434  58.7909  48.0181 0048060 218.2707  97.9144  1.00277688 27522
BEIDOU-2 G7 (C03)       
1 41586U 16037A   23272.51545721 -.00000366  00000+0  00000+0 0  9991
2 41586   1.9298  68.7580 0007065 342.0580 253.3400  1.00272570 26839
BEIDOU-3 M1 (C19)       
1 43001U 17069A   23271.30587156  .00000045  00000+0  00000+0 0  9998
2 43001  55.8609  96.0254 0007249 298.7523  61.2398  1.86231344 40114
BEIDOU-3 M2 (C20)       
1 43002U 17069B   23271.24264986  .00000045  00000+0  00000+0 0  9995
2 43002  55.8602  96.0635 0005581 334.1787  25.8588  1.86231078 40105
BEIDOU-3 M7 (C27)       
1 43107U 18003A   23272.06728088 -.00000083  00000+0  00000+0 0  9992
2 43107  55.1038 336.6357 0002956  75.5643 284.5326  1.86232338 38887
BEIDOU-3 M8 (C28)       
1 43108U 18003B   23271.46863380 -.00000079  00000+0  00000+0 0  9996
2 43108  55.0972 336.6432 0004478 247.4435 112.5732  1.86230769 38874
BEIDOU-3 M4 (C22)       
1 43207U 18018A   23270.83694064  .00000049  00000+0  00000+0 0  9999
2 43207  55.8194  96.1393 0004325  19.1704 340.9135  1.86231260 38248
BEIDOU-3 M3 (C21)       
1 43208U 18018B   23271.44054969  .00000043  00000+0  00000+0 0  9996
2 43208  55.8194  96.1235 0005178 317.1388  42.8853  1.86231205 38255
BEIDOU-3 M9 (C29)       
1 43245U 18029A   23271.66329682 -.00000077  00000+0  00000+0 0  9998
2 43245  54.9975 334.3812 0001763 231.7569 128.2929  1.86232292 37416
BEIDOU-3 M10 (C30)      
1 43246U 18029B   23271.59328956 -.00000077  00000+0  00000+0 0  9994
2 43246  54.9946 334.4123 0002863 345.6528  14.4048  1.86232763 37403
BEIDOU-2 IGSO-7 (C16)   
1 43539U 18057A   23272.43429876 -.00000144  00000+0  00000+0 0  9992
2 43539  55.1183 171.6396 0064091 230.5010 235.9991  1.00275633 19211
BEIDOU-3 M5 (C23)       
1 43581U 18062A   23271.27651497 -.00000014  00000+0  00000+0 0  9998
2 43581  54.1728 216.0965 0004526 287.0191  72.8974  1.86231730 35145
BEIDOU-3 M6 (C24)       
1 43582U 18062B   23272.21661613 -.00000009  00000+0  00000+0 0  9999
2 43582  54.1723 216.0540 0005397   5.2991 354.6745  1.86229615 35163
BEIDOU-3 M12 (C26)      
1 43602U 18067A   23272.15268608 -.00000009  00000+0  00000+0 0  9997
2 43602  54.2599 214.7137 0007280  15.6699 344.3220  1.86231410 34640
BEIDOU-3 M11 (C25)      
1 43603U 18067B   23272.28651549 -.00000008  00000+0  00000+0 0  9991
2 43603  54.2571 214.6750 0004286   2.7151 357.2572  1.86231373 34678
BEIDOU-3 M13 (C32)      
1 43622U 18072A   23271.70856356  .00000040  00000+0  00000+0 0  9992
2 43622  55.7897  95.6495 0004040 293.6056  66.4139  1.86231420 34178
BEIDOU-3 M14 (C33)      
1 43623U 18072B   23272.11096674  .00000035  00000+0  00000+0 0  9992
2 43623  55.7920  95.6287 0002453 350.3495   9.7052  1.86231435 34179
BEIDOU-3 M16 (C35)      
1 43647U 18078A   23272.27401510 -.00000081  00000+0  00000+0 0  9992
2 43647  54.8932 334.4807 0005951   4.0876 355.9828  1.86227146 33699
BEIDOU-3 M15 (C34)      
1 43648U 18078B   23272.40396172 -.00000082  00000+0  00000+0 0  9996
2 43648  54.8889 334.4800 0002737  11.1369 348.9345  1.86232123 33719
BEIDOU-3 G1 (C59)       
1 43683U 18085A   23271.92657703 -.00000291  00000+0  00000+0 0  9991
2 43683   1.5671 122.7120 0002555   0.3147 358.0653  1.00269520 18108
BEIDOU-3 M17 (C36)      
1 43706U 18093A   23271.47791848 -.00000013  00000+0  00000+0 0  9997
2 43706  54.2553 216.0087 0009641 283.0437  76.8150  1.86231813 33058
BEIDOU-3 M18 (C37)      
1 43707U 18093B   23271.34415831 -.00000013  00000+0  00000+0 0  9999
2 43707  54.2560 216.0049 0008103 310.2361  49.6592  1.86229640 33048
BEIDOU-3 IGSO-1 (C38)   
1 44204U 19023A   23271.71452434 -.00000213  00000+0  00000+0 0  9999
2 44204  57.2574  47.9870 0024044 195.0800 141.3496  1.00274709 16384
BEIDOU-2 G8 (C01)       
1 44231U 19027A   23272.55581612 -.00000258  00000+0  00000+0 0  9996
2 44231   2.0191  81.0214 0006764 130.7113 140.8807  1.00275412 16135
BEIDOU-3 IGSO-2 (C39)   
1 44337U 19035A   23271.72992426 -.00000148  00000+0  00000+0 0  9997
2 44337  55.1520 167.5780 0033045 195.9292  26.0039  1.00266655 15712
BEIDOU-3 M24 (C46)      
1 44542U 19061A   23270.34177908 -.00000014  00000+0  00000+0 0  9993
2 44542  54.4828 216.2818 0008483 344.8941  15.0471  1.86231414 27283
BEIDOU-3 M23 (C45)      
1 44543U 19061B   23272.36368729 -.00000007  00000+0  00000+0 0  9993
2 44543  54.4809 216.1825 0005727 331.4606 216.0000  1.86231659 27314
BEIDOU-3 IGSO-3 (C40)   
1 44709U 19073A   23271.45670195 -.00000157  00000+0  00000+0 0  9998
2 44709  56.4950 291.4969 0035135 190.5516 169.4283  1.00274817 14502
BEIDOU-3 M22 (C44)      
1 44793U 19078A   23271.79806846 -.00000079  00000+0  00000+0 0  9990
2 44793  54.7419 334.4612 0004751  11.9956 348.0812  1.86232084 26176
BEIDOU-3 M21 (C43)      
1 44794U 19078B   23270.85467859 -.00000074  00000+0  00000+0 0  9999
2 44794  54.7162 334.4756 0002793 358.2508   1.8133  1.86232513 26150
BEIDOU-3 M19 (C41)      
1 44864U 19090A   23272.43071774  .00000031  00000+0  00000+0 0  9996
2 44864  55.7249  95.8106 0015214 274.0133 256.4478  1.86231607 25751
BEIDOU-3 M20 (C42)      
1 44865U 19090B   23271.50321564  .00000042  00000+0  00000+0 0  9991
2 44865  55.7257  95.8747 0012959 289.2320  69.1649  1.86231524 25725
BEIDOU-3 G2 (C60)       
1 45344U 20017A   23272.07947396 -.00000154  00000+0  00000+0 0  9990
2 45344   2.0639  17.4630 0003258 173.9420 284.8185  1.00272441 13323
BEIDOU-3 G3 (C61)       
1 45807U 20040A   23272.51554424 -.00000368  00000+0  00000+0 0  9992
2 45807   0.5980 349.1626 0007260 319.7583 355.2097  1.00275808 12140
BEIDOU-3 G4             
1 56564U 23066A   23271.78116689 -.00000130  00000+0  00000+0 0  9997
2 56564   2.7851 288.7054 0006550 219.0204 300.8271  1.00271583  1446
